{"RECORDS":[{"CCSDS_OMM_VERS":80985.68,"CREATION_DATE":"2076-11-01T07:32:44.743Z","ORIGINATOR":"Jerde - Rath","OBJECT_NAME":"fVr.Y\\Bz9v","OBJECT_ID":"\\33'N\\0kJs","CENTER_NAME":"!$r.|tn;J#","REF_FRAME":8,"REF_FRAME_EPOCH":"2055-10-27T16:49:34.875Z","TIME_SYSTEM":5,"MEAN_ELEMENT_THEORY":1,"COMMENT":"$8_46:X>tN","EPOCH":"2042-06-23T07:25:08.637Z","SEMI_MAJOR_AXIS":15152.16,"MEAN_MOTION":29086.42,"ECCENTRICITY":46934.88,"INCLINATION":83725.59,"RA_OF_ASC_NODE":56862.02,"ARG_OF_PERICENTER":61361.34,"MEAN_ANOMALY":42944.61,"GM":45240.29,"MASS":27730.78,"SOLAR_RAD_AREA":63414.45,"SOLAR_RAD_COEFF":55244.02,"DRAG_AREA":87657.18,"DRAG_COEFF":71784.44,"EPHEMERIS_TYPE":1,"CLASSIFICATION_TYPE":"(D-<u<FF1W","NORAD_CAT_ID":2189022138,"ELEMENT_SET_NO":3179913663,"REV_AT_EPOCH":30645.98,"BSTAR":10803.44,"MEAN_MOTION_DOT":90667.12,"MEAN_MOTION_DDOT":91322.68,"COV_REF_FRAME":2,"CX_X":58362.14,"CY_X":78691.61,"CY_Y":14095.53,"CZ_X":86978.56,"CZ_Y":6475.61,"CZ_Z":13574.7,"CX_DOT_X":55596.34,"CX_DOT_Y":85391.47,"CX_DOT_Z":25357.15,"CX_DOT_X_DOT":53680.63,"CY_DOT_X":63381.22,"CY_DOT_Y":45539.19,"CY_DOT_Z":83043.32,"CY_DOT_X_DOT":29587.34,"CY_DOT_Y_DOT":98054.34,"CZ_DOT_X":14924.18,"CZ_DOT_Y":17494.76,"CZ_DOT_Z":93391.46,"CZ_DOT_X_DOT":86615.86,"CZ_DOT_Y_DOT":25664.17,"CZ_DOT_Z_DOT":69295.39,"USER_DEFINED_BIP_0044_TYPE":724960031,"USER_DEFINED_OBJECT_DESIGNATOR":"$rm:1`r$HX","USER_DEFINED_EARTH_MODEL":"i->zbQHt(g","USER_DEFINED_EPOCH_TIMESTAMP":16934.61,"USER_DEFINED_MICROSECONDS":25360.48}]}